NORAD_CAT_ID,OBJECT_NAME,OBJECT_TYPE,EPOCH,MEAN_MOTION,ECCENTRICITY,INCLINATION,RA_OF_ASC_NODE,ARG_OF_PERICENTER,MEAN_ANOMALY,BSTAR,MEAN_MOTION_DOT,MEAN_MOTION_DDOT,TLE_LINE0,TLE_LINE1,TLE_LINE2,SEMIMAJOR_AXIS,PERIOD,APOGEE,PERIGEE,DECAYED
55397.0,STARLINK-5224,PAYLOAD,2023-11-07 23:00:45,14.9834709,0.0002606,70.001,34.6467,265.952,94.1341,-0.00041504,-5.044e-05,0.0,0 STARLINK-5224,1 55397U 23014G   23311.95886155 -.00005044  00000-0 -41504-3 0  9998,2 55397  70.0010  34.6467 0002606 265.9520  94.1341 14.98347090 43871,6950.14,96.106,573.816,570.194,0.0
55397.0,STARLINK-5224,PAYLOAD,2023-11-08 14:00:01,14.98362717,0.0002621,70.0031,33.0729,270.4626,217.0972,-0.0028967,-0.00034515,0.0,0 STARLINK-5224,1 55397U 23014G   23312.58334491 -.00034515  00000-0 -28967-2 0  9991,2 55397  70.0031  33.0729 0002621 270.4626 217.0972 14.98362717  5702,6950.092,96.105,573.778,570.135,0.0
55397.0,STARLINK-5224,PAYLOAD,2023-11-08 15:02:05,14.98327763,0.0002063,70.0029,32.9667,239.8896,120.2059,0.00028468,3.305e-05,0.0,0 STARLINK-5224,1 55397U 23014G   23312.62645767  .00003305  00000-0  28468-3 0  9995,2 55397  70.0029  32.9667 0002063 239.8896 120.2059 14.98327763 44915,6950.2,96.107,573.499,570.631,0.0
55397.0,STARLINK-5224,PAYLOAD,2023-11-08 23:02:45,14.98383064,0.0002036,70.0028,32.1258,279.1021,80.9908,-0.00061053,-7.38e-05,0.0,0 STARLINK-5224,1 55397U 23014G   23312.96024476 -.00007380  00000-0 -61053-3 0  9996,2 55397  70.0028  32.1258 0002036 279.1021  80.9908 14.98383064 44022,6950.029,96.104,573.309,570.479,0.0
55397.0,STARLINK-5224,PAYLOAD,2023-11-09 11:51:50,14.98329818,0.0002267,70.0017,30.7762,259.9272,100.1632,0.00023475,2.709e-05,0.0,0 STARLINK-5224,1 55397U 23014G   23313.49433691  .00002709  00000-0  23475-3 0  9992,2 55397  70.0017  30.7762 0002267 259.9272 100.1632 14.98329818 44109,6950.193,96.107,573.634,570.483,0.0
55397.0,STARLINK-5224,PAYLOAD,2023-11-09 13:27:58,14.98330881,0.0002115,70.0028,30.6108,238.5256,121.5697,0.00022728,2.62e-05,0.0,0 STARLINK-5224,1 55397U 23014G   23313.56109598  .00002620  00000-0  22728-3 0  9998,2 55397  70.0028  30.6108 0002115 238.5256 121.5697 14.98330881 45056,6950.19,96.107,573.525,570.585,0.0
55397.0,STARLINK-5224,PAYLOAD,2023-11-09 15:04:06,14.98333738,0.0002204,70.0015,30.4392,256.8878,103.2035,0.00025355,2.934e-05,0.0,0 STARLINK-5224,1 55397U 23014G   23313.62785350  .00002934  00000-0  25355-3 0  9998,2 55397  70.0015  30.4392 0002204 256.8878 103.2035 14.98333738 45065,6950.181,96.107,573.578,570.515,0.0
55397.0,STARLINK-5224,PAYLOAD,2023-11-10 11:53:51,14.98342505,0.0002611,70.001,28.2516,273.484,86.6021,-3.5472e-05,-5.16e-06,0.0,0 STARLINK-5224,1 55397U 23014G   23314.49573380 -.00000516  00000-0 -35472-4 0  9990,2 55397  70.0010  28.2516 0002611 273.4840  86.6021 14.98342505 44250,6950.154,96.106,573.834,570.205,0.0
55397.0,STARLINK-5224,PAYLOAD,2023-11-10 13:29:59,14.98338228,0.0002562,70.001,28.0834,271.6928,88.3937,-0.00010087,-1.296e-05,0.0,0 STARLINK-5224,1 55397U 23014G   23314.56249746 -.00001296  00000-0 -10087-3 0  9994,2 55397  70.0010  28.0834 0002562 271.6928  88.3937 14.98338228 45201,6950.167,96.106,573.813,570.252,0.0
55397.0,STARLINK-5224,PAYLOAD,2023-11-10 15:06:07,14.98337172,0.0002509,70.0011,27.9153,270.9981,89.089,-0.00010687,-1.368e-05,0.0,0 STARLINK-5224,1 55397U 23014G   23314.62925792 -.00001368  00000-0 -10687-3 0  9999,2 55397  70.0011  27.9153 0002509 270.9981  89.0890 14.98337172 45210,6950.171,96.107,573.78,570.292,0.0
55397.0,STARLINK-5224,PAYLOAD,2023-11-11 11:55:50,14.98350864,0.0002509,70.0009,25.7269,275.4954,84.5919,0.0001023,1.129e-05,0.0,0 STARLINK-5224,1 55397U 23014G   23315.49711563  .00001129  00000-0  10230-3 0  9991,2 55397  70.0009  25.7269 0002509 275.4954  84.5919 14.98350864 44406,6950.128,96.106,573.737,570.25,0.0
55397.0,STARLINK-5224,PAYLOAD,2023-11-11 13:31:58,14.98351849,0.0002466,70.0009,25.5589,270.9991,89.0886,0.00010308,1.138e-05,0.0,0 STARLINK-5224,1 55397U 23014G   23315.56387372  .00001138  00000-0  10308-3 0  9992,2 55397  70.0009  25.5589 0002466 270.9991  89.0886 14.98351849 45354,6950.125,96.106,573.704,570.276,0.0
55397.0,STARLINK-5224,PAYLOAD,2023-11-11 21:32:39,14.98337327,0.0002441,70.0034,24.7172,276.852,83.2361,-2.5064e-05,-3.92e-06,0.0,0 STARLINK-5224,1 55397U 23014G   23315.89768310 -.00000392  00000-0 -25064-4 0  9992,2 55397  70.0034  24.7172 0002441 276.8520  83.2361 14.98337327 45402,6950.17,96.107,573.732,570.339,0.0
55397.0,STARLINK-5224,PAYLOAD,2023-11-12 10:21:45,14.9832405,0.0002323,70.0018,23.3718,274.7969,85.2924,-7.6146e-06,-1.84e-06,0.0,0 STARLINK-5224,1 55397U 23014G   23316.43177104 -.00000184  00000-0 -76146-5 0  9995,2 55397  70.0018  23.3718 0002323 274.7969  85.2924 14.98324050 44548,6950.211,96.107,573.691,570.462,0.0
55397.0,STARLINK-5224,PAYLOAD,2023-11-12 13:34:01,14.98323232,0.0002334,70.0023,23.0357,271.9032,88.186,-5.7868e-06,-1.62e-06,0.0,0 STARLINK-5224,1 55397U 23014G   23316.56529168 -.00000162  00000-0 -57868-5 0  9996,2 55397  70.0023  23.0357 0002334 271.9032  88.1860 14.98323232 45501,6950.214,96.107,573.701,570.457,0.0
55397.0,STARLINK-5224,PAYLOAD,2023-11-12 21:34:41,14.98329715,0.0002511,70.0012,22.1931,272.3404,87.7468,-3.0615e-05,-4.58e-06,0.0,0 STARLINK-5224,1 55397U 23014G   23316.89908794 -.00000458  00000-0 -30615-4 0  9996,2 55397  70.0012  22.1931 0002511 272.3404  87.7468 14.98329715 45558,6950.194,96.107,573.804,570.314,0.0
55397.0,STARLINK-5224,PAYLOAD,2023-11-13 03:59:12,14.98339973,0.0002427,70.0013,21.521,267.0186,93.0695,-0.00010908,-1.394e-05,0.0,0 STARLINK-5224,1 55397U 23014G   23317.16612262 -.00001394  00000-0 -10908-3 0  9991,2 55397  70.0013  21.5210 0002427 267.0186  93.0695 14.98339973 44655,6950.162,96.106,573.714,570.34,0.0
55397.0,STARLINK-5224,PAYLOAD,2023-11-13 11:59:53,14.98338164,0.0002508,70.0012,20.6771,273.1048,86.9824,-7.8377e-05,-1.028e-05,0.0,0 STARLINK-5224,1 55397U 23014G   23317.49992122 -.00001028  00000-0 -78377-4 0  9992,2 55397  70.0012  20.6771 0002508 273.1048  86.9824 14.98338164 45647,6950.168,96.106,573.776,570.29,0.0
55397.0,STARLINK-5224,PAYLOAD,2023-11-13 21:36:41,14.98355417,0.0002679,70.0012,19.6665,279.2216,80.864,-0.00051687,-6.259e-05,0.0,0 STARLINK-5224,1 55397U 23014G   23317.90047886 -.00006259  00000-0 -51687-3 0  9991,2 55397  70.0012  19.6665 0002679 279.2216  80.8640 14.98355417 45706,6950.114,96.105,573.841,570.117,0.0
55397.0,STARLINK-5224,PAYLOAD,2023-11-14 04:01:14,14.98314801,0.0002589,70.0008,18.9951,270.1744,89.9119,0.00010327,1.139e-05,0.0,0 STARLINK-5224,1 55397U 23014G   23318.16753042  .00001139  00000-0  10327-3 0  9994,2 55397  70.0008  18.9951 0002589 270.1744  89.9119 14.98314801 44800,6950.24,96.108,573.904,570.305,0.0
55397.0,STARLINK-5224,PAYLOAD,2023-11-14 13:38:03,14.98316917,0.0002317,70.0013,17.9839,264.8965,95.1929,-8.7134e-06,-1.97e-06,0.0,0 STARLINK-5224,1 55397U 23014G   23318.56809476 -.00000197  00000-0 -87134-5 0  9998,2 55397  70.0013  17.9839 0002317 264.8965  95.1929 14.98316917 45803,6950.233,96.108,573.709,570.488,0.0
55397.0,STARLINK-5224,PAYLOAD,2023-11-15 12:03:55,14.98329607,0.0002516,70.0016,15.6282,258.8793,101.2084,-9.6275e-06,-2.08e-06,0.0,0 STARLINK-5224,1 55397U 23014G   23319.50272834 -.00000208  00000-0 -96275-5 0  9994,2 55397  70.0016  15.6282 0002516 258.8793 101.2084 14.98329607 45009,6950.194,96.107,573.808,570.31,0.0
55397.0,STARLINK-5224,PAYLOAD,2023-11-15 21:40:44,14.9832923,0.0001734,70.0032,14.6186,279.3471,80.7492,1.3474e-07,-9.1e-07,0.0,0 STARLINK-5224,1 55397U 23014G   23319.90329203 -.00000091  00000-0  13474-6 0  9991,2 55397  70.0032  14.6186 0001734 279.3471  80.7492 14.98329230 46008,6950.195,96.107,573.265,570.855,0.0
55397.0,STARLINK-5224,PAYLOAD,2023-11-16 08:53:40,14.98324477,0.000246,70.002,13.4402,266.3453,93.7425,5.8903e-05,6.1e-06,0.0,0 STARLINK-5224,1 55397U 23014G   23320.37060990  .00000610  00000-0  58903-4 0  9999,2 55397  70.0020  13.4402 0002460 266.3453  93.7425 14.98324477 46071,6950.21,96.107,573.785,570.365,0.0
55397.0,STARLINK-5224,PAYLOAD,2023-11-17 04:07:16,14.98332508,0.0002202,70.0016,11.4207,249.9581,110.1341,5.7971e-05,5.99e-06,0.0,0 STARLINK-5224,1 55397U 23014G   23321.17172448  .00000599  00000-0  57971-4 0  9990,2 55397  70.0016  11.4207 0002202 249.9581 110.1341 14.98332508 45254,6950.185,96.107,573.581,570.52,0.0
55397.0,STARLINK-5224,PAYLOAD,2023-11-17 12:07:56,14.98337728,0.000212,70.0022,10.5793,249.897,110.1961,0.00012743,1.428e-05,0.0,0 STARLINK-5224,1 55397U 23014G   23321.50551828  .00001428  00000-0  12743-3 0  9999,2 55397  70.0022  10.5793 0002120 249.8970 110.1961 14.98337728 46248,6950.169,96.107,573.507,570.561,0.0
55397.0,STARLINK-5224,PAYLOAD,2023-11-17 20:08:37,14.98328569,0.0002157,70.0018,9.7359,281.282,78.8096,0.00018103,2.068e-05,0.0,0 STARLINK-5224,1 55397U 23014G   23321.83932323  .00002068  00000-0  18103-3 0  9995,2 55397  70.0018   9.7359 0002157 281.2820  78.8096 14.98328569 46292,6950.197,96.107,573.561,570.563,0.0
55397.0,STARLINK-5224,PAYLOAD,2023-11-18 04:09:17,14.98332254,0.0002344,70.0018,8.8952,276.193,83.8962,2.1387e-05,1.62e-06,0.0,0 STARLINK-5224,1 55397U 23014G   23322.17312157  .00000162  00000-0  21387-4 0  9992,2 55397  70.0018   8.8952 0002344 276.1930  83.8962 14.98332254 45400,6950.186,96.107,573.68,570.422,0.0
55397.0,STARLINK-5224,PAYLOAD,2023-11-18 12:09:58,14.98321496,0.0002372,70.0014,8.0538,268.4293,91.6594,-8.6169e-05,-1.121e-05,0.0,0 STARLINK-5224,1 55397U 23014G   23322.50693233 -.00001121  00000-0 -86169-4 0  9993,2 55397  70.0014   8.0538 0002372 268.4293  91.6594 14.98321496 45454,6950.219,96.108,573.733,570.436,0.0
55397.0,STARLINK-5224,PAYLOAD,2023-11-18 20:10:39,14.98292448,0.0002248,70.0014,7.2124,274.834,85.2562,0.00051251,6.021e-05,0.0,0 STARLINK-5224,1 55397U 23014G   23322.84073989  .00006021  00000-0  51251-3 0  9995,2 55397  70.0014   7.2124 0002248 274.8340  85.2562 14.98292448 46440,6950.309,96.109,573.736,570.612,0.0
